ORBCOMM FM01            
1 23545U 95017A   25117.64177933  .00010873  00000+0  11475-2 0  9995
2 23545  69.9644 200.1169 0002833 332.7274  27.3731 14.89476569604981
ORBCOMM FM02            
1 23546U 95017B   25117.67868877  .00014396  00000+0  14889-2 0  9999
2 23546  69.9661 219.5636 0003630 352.7111   7.3990 14.90191448604631
ORBCOMM FM08            
1 25112U 97084A   25117.73655654  .00003736  00000+0  10862-2 0  9993
2 25112  45.0135 250.0198 0005036 341.0451  19.0213 14.45642958434070
ORBCOMM FM10            
1 25113U 97084B   25117.84852078  .00003424  00000+0  10034-2 0  9990
2 25113  45.0145 251.7761 0004427 298.2107  61.8297 14.45434119609237
ORBCOMM FM11            
1 25114U 97084C   25117.77529036  .00003674  00000+0  10792-2 0  9996
2 25114  45.0132 252.6693 0005091 303.5253  56.5112 14.45186321434184
ORBCOMM FM12            
1 25115U 97084D   25117.80763942  .00003469  00000+0  10207-2 0  9990
2 25115  45.0139 252.2691 0004219 295.3877  64.6537 14.45207596433983
ORBCOMM FM09            
1 25116U 97084E   25117.69740344  .00003289  00000+0  97227-3 0  9997
2 25116  45.0142 253.6814 0005820 289.8713  70.1510 14.45087019434177
